H1 CPF 01  gfz 2021 03 03 01  5621 terrasarx 
H2 0702601  6201 31698    2021 03 03 00 59 42 2021 03 08 00 00 42   120 1 1  0 0 0
H9
10 0 59278  46062.000000  0     604543.516  -1414725.173   6704161.104
10 0 59278  46182.000000  0     378136.136  -2278224.955   6479645.631
10 0 59278  46302.000000  0     130404.800  -3097822.488   6141266.681
10 0 59278  46422.000000  0    -133433.308  -3858874.232   5694937.604
10 0 59278  46542.000000  0    -407630.544  -4547841.088   5148465.011
10 0 59278  46662.000000  0    -686028.710  -5152533.389   4511420.706
10 0 59278  46782.000000  0    -962192.394  -5662336.606   3794981.216
10 0 59278  46902.000000  0   -1229552.131  -6068407.911   3011733.611
10 0 59278  47022.000000  0   -1481553.540  -6363838.588   2175454.615
10 0 59278  47142.000000  0   -1711809.511  -6543781.215   1300866.817
10 0 59278  47262.000000  0   -1914252.718  -6605536.220    403373.295
10 0 59278  47382.000000  0   -2083281.615  -6548594.342   -501222.008
10 0 59278  47502.000000  0   -2213897.727  -6374635.148  -1397001.383
10 0 59278  47622.000000  0   -2301831.051  -6087481.690  -2268221.794
10 0 59278  47742.000000  0   -2343650.503  -5693012.616  -3099598.881
10 0 59278  47862.000000  0   -2336856.238  -5199033.363  -3876580.327
10 0 59278  47982.000000  0   -2279951.439  -4615110.529  -4585601.486
10 0 59278  48102.000000  0   -2172492.557  -3952375.688  -5214318.447
10 0 59278  48222.000000  0   -2015117.627  -3223304.224  -5751815.921
10 0 59278  48342.000000  0   -1809552.337  -2441473.851  -6188787.989
10 0 59278  48462.000000  0   -1558593.230  -1621307.129  -6517688.775
10 0 59278  48582.000000  0   -1266069.348   -777804.381  -6732850.821
10 0 59278  48702.000000  0    -936784.090     73727.971  -6830572.188
10 0 59278  48822.000000  0    -576437.050    917949.434  -6809172.653
10 0 59278  48942.000000  0    -191526.888   1739754.623  -6669019.237
10 0 59278  49062.000000  0     210761.880   2524536.292  -6412520.705
10 0 59278  49182.000000  0     622689.018   3258440.244  -6044092.797
10 0 59278  49302.000000  0    1036104.143   3928608.236  -5570089.909
10 0 59278  49422.000000  0    1442603.342   4523403.169  -4998705.428
10 0 59278  49542.000000  0    1833696.115   5032615.758  -4339842.332
10 0 59278  49662.000000  0    2200979.592   5447647.794  -3604951.450
10 0 59278  49782.000000  0    2536315.832   5761666.466  -2806840.740
10 0 59278  49902.000000  0    2832009.328   5969728.003  -1959457.937
10 0 59278  50022.000000  0    3080980.526   6068866.274  -1077648.359
10 0 59278  50142.000000  0    3276930.064   6058142.798   -176891.885
10 0 59278  50262.000000  0    3414489.125   5938655.706    726974.713
10 0 59278  50382.000000  0    3489352.660   5713507.644   1618043.248
10 0 59278  50502.000000  0    3498392.364   5387734.284   2480622.057
10 0 59278  50622.000000  0    3439745.135   4968194.315   3299521.158
10 0 59278  50742.000000  0    3312875.995   4463421.393   4060327.125
10 0 59278  50862.000000  0    3118614.055   3883445.879   4749661.108
10 0 59278  50982.000000  0    2859156.752   3239588.130   5355418.038
10 0 59278  51102.000000  0    2538046.380   2544229.206   5866975.628
10 0 59278  51222.000000  0    2160122.227   1810567.817   6275375.771
10 0 59278  51342.000000  0    1731445.814   1052365.046   6573476.959
10 0 59278  51462.000000  0    1259200.653    283683.223   6756072.097
10 0 59278  51582.000000  0     751570.214   -481373.969   6819973.418
10 0 59278  51702.000000  0     217595.782  -1228919.825   6764066.241
10 0 59278  51822.000000  0    -332984.847  -1945536.836   6589327.061
10 0 59278  51942.000000  0    -889914.947  -2618517.468   6298806.976
10 0 59278  52062.000000  0   -1442608.607  -3236089.779   5897580.069
10 0 59278  52182.000000  0   -1980349.088  -3787624.210   5392660.231
10 0 59278  52302.000000  0   -2492496.594  -4263820.561   4792886.855
10 0 59278  52422.000000  0   -2968701.571  -4656871.522   4108776.894
10 0 59278  52542.000000  0   -3399117.094  -4960597.542   3352343.876
10 0 59278  52662.000000  0   -3774604.253  -5170549.904   2536887.477
10 0 59278  52782.000000  0   -4086926.860  -5284080.250   1676758.802
10 0 59278  52902.000000  0   -4328932.310  -5300374.626    787103.809
10 0 59278  53022.000000  0   -4494712.764  -5220450.060   -116409.900
10 0 59278  53142.000000  0   -4579742.825  -5047114.335  -1017877.154
10 0 59278  53262.000000  0   -4580989.512  -4784889.143  -1901444.970
10 0 59278  53382.000000  0   -4496991.007  -4439897.809  -2751600.179
10 0 59278  53502.000000  0   -4327902.885  -4019721.671  -3553447.479
10 0 59278  53622.000000  0   -4075511.408  -3533230.268  -4292972.354
10 0 59278  53742.000000  0   -3743214.588  -2990389.928  -4957284.483
10 0 59278  53862.000000  0   -3335971.689  -2402054.939  -5534837.420
10 0 59278  53982.000000  0   -2860223.078  -1779747.210  -6015620.707
10 0 59278  54102.000000  0   -2323783.186  -1135429.074  -6391323.448
10 0 59278  54222.000000  0   -1735707.515   -481273.426  -6655466.924
10 0 59278  54342.000000  0   -1106137.626    170563.642  -6803504.119
10 0 59278  54462.000000  0    -446128.460    808163.199  -6832888.576
10 0 59278  54582.000000  0     232541.853   1420055.910  -6743113.654
10 0 59278  54702.000000  0     917575.955   1995422.465  -6535720.758
10 0 59278  54822.000000  0    1596375.425   2524281.438  -6214277.859
10 0 59278  54942.000000  0    2256267.909   2997660.762  -5784324.340
10 0 59278  55062.000000  0    2884740.295   3407750.206  -5253284.478
10 0 59278  55182.000000  0    3469673.634   3748032.047  -4630350.534
10 0 59278  55302.000000  0    3999577.934   4013389.765  -3926335.412
10 0 59278  55422.000000  0    4463821.567   4200190.567  -3153494.552
10 0 59278  55542.000000  0    4852849.902   4306339.508  -2325318.694
10 0 59278  55662.000000  0    5158386.928   4331303.289  -1456301.527
10 0 59278  55782.000000  0    5373616.469   4276103.219   -561685.286
10 0 59278  55902.000000  0    5493336.009   4143276.646    342810.683
10 0 59278  56022.000000  0    5514080.687   3936808.237   1241272.134
10 0 59278  56142.000000  0    5434214.021   3662030.737   2117878.358
10 0 59278  56262.000000  0    5253981.272   3325497.971   2957189.934
10 0 59278  56382.000000  0    4975523.446   2934834.495   3744429.118
10 0 59278  56502.000000  0    4602852.636   2498564.471   4465746.363
10 0 59278  56622.000000  0    4141790.037   2025924.553   5108465.177
10 0 59278  56742.000000  0    3599869.709   1526668.619   5661306.287
10 0 59278  56862.000000  0    2986206.260   1010864.354   6114583.233
10 0 59278  56982.000000  0    2311334.282    488688.363   6460365.040
10 0 59278  57102.000000  0    1587023.396    -29773.570   6692607.746
10 0 59278  57222.000000  0     826070.704   -534720.062   6807256.084
10 0 59278  57342.000000  0      42072.357  -1016819.398   6802310.333
10 0 59278  57462.000000  0    -750819.695  -1467381.316   6677858.063
10 0 59278  57582.000000  0   -1538152.621  -1878513.669   6436071.784
10 0 59278  57702.000000  0   -2305434.278  -2243260.214   6081172.015
10 0 59278  57822.000000  0   -3038398.001  -2555718.262   5619360.053
10 0 59278  57942.000000  0   -3723271.246  -2811137.214   5058718.109
10 0 59278  58062.000000  0   -4347039.611  -3005993.131   4409072.219
10 0 59278  58182.000000  0   -4897699.338  -3138037.718   3681823.872
10 0 59278  58302.000000  0   -5364494.472  -3206320.900   2889752.941
10 0 59278  58422.000000  0   -5738134.539  -3211187.459   2046794.590
10 0 59278  58542.000000  0   -6010987.252  -3154247.463   1167791.164
10 0 59278  58662.000000  0   -6177239.297  -3038319.209    268224.254
10 0 59278  58782.000000  0   -6233021.820  -2867346.632   -636065.396
10 0 59278  58902.000000  0   -6176497.848  -2646293.916  -1529166.480
10 0 59278  59022.000000  0   -6007906.612  -2381018.522  -2395386.775
10 0 59278  59142.000000  0   -5729565.696  -2078127.656  -3219535.027
10 0 59278  59262.000000  0   -5345832.610  -1744821.936  -3987191.116
10 0 59278  59382.000000  0   -4863026.284  -1388730.057  -4684958.434
10 0 59278  59502.000000  0   -4289312.086  -1017738.806  -5300694.463
10 0 59278  59622.000000  0   -3634552.293   -639821.978  -5823715.483
10 0 59278  59742.000000  0   -2910127.082   -262872.767  -6244971.702
10 0 59278  59862.000000  0   -2128730.805    105456.982  -6557192.105
10 0 59278  59982.000000  0   -1304146.799    457907.097  -6754998.495
10 0 59278  60102.000000  0    -451005.782    787746.940  -6834987.789
10 0 59278  60222.000000  0     415468.492   1088900.450  -6795783.476
10 0 59278  60342.000000  0    1279723.088   1356054.110  -6638057.474
10 0 59278  60462.000000  0    2126149.415   1584749.014  -6364522.143
10 0 59278  60582.000000  0    2939359.902   1771454.911  -5979888.401
10 0 59278  60702.000000  0    3704464.053   1913624.200  -5490791.937
10 0 59278  60822.000000  0    4407338.897   2009725.821  -4905689.668
10 0 59278  60942.000000  0    5034892.790   2059259.136  -4234725.444
10 0 59278  61062.000000  0    5575315.319   2062746.211  -3489563.821
10 0 59278  61182.000000  0    6018307.630   2021702.505  -2683195.790
10 0 59278  61302.000000  0    6355290.137   1938586.800  -1829718.106
10 0 59278  61422.000000  0    6579580.121   1816730.904   -944087.230
10 0 59278  61542.000000  0    6686534.435   1660249.701    -41854.582
10 0 59278  61662.000000  0    6673652.285   1473933.723    861113.477
10 0 59278  61782.000000  0    6540635.103   1263127.932   1748920.941
10 0 59278  61902.000000  0    6289405.105   1033598.619   2605931.321
10 0 59278  62022.000000  0    5924076.098    791391.424   3417052.072
10 0 59278  62142.000000  0    5450881.194    542685.522   4168007.498
10 0 59278  62262.000000  0    4878056.913    293646.899   4845593.541
10 0 59278  62382.000000  0    4215691.374     50285.601   5437910.964
10 0 59278  62502.000000  0    3475535.868   -181682.028   5934573.493
99
